[{"OBJECT_NAME":"STARLINK-1267","OBJECT_ID":"2020-019AA","EPOCH":"2026-03-09T10:13:57.669888","MEAN_MOTION":15.49705648,"ECCENTRICITY":0.00026991,"INCLINATION":53.0515,"RA_OF_ASC_NODE":128.2688,"ARG_OF_PERICENTER":271.1817,"MEAN_ANOMALY":88.8882,"EPHEMERIS_TYPE":0,"CLASSIFICATION_TYPE":"U","NORAD_CAT_ID":45384,"ELEMENT_SET_NO":999,"REV_AT_EPOCH":33024,"BSTAR":0.0017135901,"MEAN_MOTION_DOT":0.00097422,"MEAN_MOTION_DDOT":0},{"OBJECT_NAME":"STARLINK-36692","OBJECT_ID":"2026-026Z","EPOCH":"2026-03-09T22:00:01.999584","MEAN_MOTION":15.49151009,"ECCENTRICITY":0.0001001,"INCLINATION":97.285,"RA_OF_ASC_NODE":123.5069,"ARG_OF_PERICENTER":84.7027,"MEAN_ANOMALY":141.487,"EPHEMERIS_TYPE":0,"CLASSIFICATION_TYPE":"U","NORAD_CAT_ID":67744,"ELEMENT_SET_NO":999,"REV_AT_EPOCH":535,"BSTAR":0.0011356985,"MEAN_MOTION_DOT":0.00062083,"MEAN_MOTION_DDOT":0}]
